STARLINK-2170           
1 47753U 21017AH  26068.64048288  .00011649  00000+0  40470-3 0  9997
2 47753  53.1613 204.1273 0001504  64.4088 295.7068 15.30209302277880
ARCSTONE                
1 64540U 25135N   26068.88991918  .00026427  00000+0  94900-3 0  9995
2 64540  97.4495 185.9194 0004120 166.7863 193.3485 15.28638458 39847
